     2.10           G: GLONASS NAV DATA                     RINEX VERSION / TYPE
teqc  2015Jun23                         20211127 01:25:48UTCPGM / RUN BY / DATE
Linux 2.4.21-27.ELsmp|Opteron|gcc -static|Linux x86_64|=+   COMMENT
  2021    11     3    0.000000000000D+00                    CORR TO SYSTEM TIME
                                                            END OF HEADER
14 21 11  4 19 15  0.0 7.066316902637D-05 0.000000000000D+00 6.840000000000D+04
   -6.041470214844D+03 2.389345169067D-01 2.793967723846D-09 0.000000000000D+00
    2.382541113281D+04-9.095954895020D-01 2.793967723846D-09-7.000000000000D+00
   -6.782534667969D+03-3.401658058167D+00 1.862645149231D-09 0.000000000000D+00
17 21 11  4 19 15  0.0 4.720790311694D-04 2.728484105319D-12 6.840000000000D+04
   -2.152643066406D+03-2.449839591980D+00 2.793967723846D-09 0.000000000000D+00
    1.134553808594D+04-1.926535606384D+00 3.725290298462D-09 4.000000000000D+00
    2.276176904297D+04 7.245912551880D-01-9.313225746155D-10 0.000000000000D+00
18 21 11  4 19 15  0.0 9.607244282961D-05 9.094947017729D-13 6.840000000000D+04
    1.261585693359D+04-1.359608650208D+00 1.862645149231D-09 0.000000000000D+00
    1.746769775391D+04-1.296332359314D+00 5.587935447693D-09-3.000000000000D+00
    1.363622070312D+04 2.925873756409D+00 0.000000000000D+00 0.000000000000D+00
19 21 11  4 19 15  0.0-1.657493412495D-04-9.094947017729D-13 6.840000000000D+04
    2.022981787109D+04 3.524637222290D-01 0.000000000000D+00 0.000000000000D+00
    1.544736425781D+04-4.590988159180D-02 5.587935447693D-09 3.000000000000D+00
   -1.778904296875D+03 3.602314949036D+00 1.862645149231D-09 0.000000000000D+00
 4 21 11  4 19 15  0.0 1.126592978835D-04 1.818989403546D-12 6.951000000000D+04
    2.966181640625D+03-2.911449432373D+00 0.000000000000D+00 0.000000000000D+00
    1.047707910156D+04 1.233776092529D+00 0.000000000000D+00 6.000000000000D+00
   -2.304831542969D+04 1.847391128540D-01 3.725290298462D-09 0.000000000000D+00
 3 21 11  4 19 45  0.0 4.588812589645D-05 0.000000000000D+00 7.020000000000D+04
   -1.702697265625D+04-1.169778823853D+00 2.793967723846D-09 0.000000000000D+00
    1.583610156250D+04 8.601093292236D-01-9.313225746155D-10 5.000000000000D+00
   -1.052034326172D+04 3.171846389771D+00 9.313225746155D-10 0.000000000000D+00
15 21 11  4 19 45  0.0 1.004105433822D-04-0.000000000000D+00 7.020000000000D+04
    2.467040039062D+03 1.589975357056D-01 3.725290298462D-09 0.000000000000D+00
    2.498831738281D+04 6.137037277222D-01 4.656612873077D-09 0.000000000000D+00
    4.520486328125D+03-3.496411323547D+00 9.313225746155D-10 0.000000000000D+00
 2 21 11  4 19 45  0.0 4.989653825760D-04 9.094947017729D-13 7.020000000000D+04
   -2.273166015625D+04 8.892326354980D-01 2.793967723846D-09 0.000000000000D+00
    9.457278808594D+03-3.190469741821D-01-9.313225746155D-10-4.000000000000D+00
    6.833375976562D+03 3.409907341003D+00-9.313225746155D-10 0.000000000000D+00
 4 21 11  4 19 45  0.0 1.126620918512D-04 1.818989403546D-12 7.020000000000D+04
   -1.991857421875D+03-2.555133819580D+00 9.313225746155D-10 0.000000000000D+00
    1.302050878906D+04 1.562316894531D+00-0.000000000000D+00 6.000000000000D+00
   -2.182756103516D+04 1.162782669067D+00 2.793967723846D-09 0.000000000000D+00
14 21 11  4 19 45  0.0 7.066316902637D-05 0.000000000000D+00 7.020000000000D+04
   -5.713425781250D+03 8.794879913330D-02 2.793967723846D-09 0.000000000000D+00
    2.143659082031D+04-1.724606513977D+00 9.313225746155D-10-7.000000000000D+00
   -1.256371533203D+04-2.980089187622D+00 2.793967723846D-09 0.000000000000D+00
18 21 11  4 19 45  0.0 9.607430547476D-05 9.094947017729D-13 7.020000000000D+04
    9.495255859375D+03-2.094140052795D+00 2.793967723846D-09 0.000000000000D+00
    1.500972509766D+04-1.388566970825D+00 4.656612873077D-09-3.000000000000D+00
    1.830716992188D+04 2.230464935303D+00-0.000000000000D+00 0.000000000000D+00
19 21 11  4 19 45  0.0-1.657512038946D-04-9.094947017729D-13 7.020000000000D+04
    2.019386669922D+04-4.144506454468D-01 1.862645149231D-09 0.000000000000D+00
    1.487515722656D+04-5.529918670654D-01 5.587935447693D-09 3.000000000000D+00
    4.690272460938D+03 3.539018630981D+00 9.313225746155D-10 0.000000000000D+00
16 21 11  4 19 45  0.0-2.444535493851D-05-0.000000000000D+00 7.119000000000D+04
    1.011480712891D+04 1.782093048096D-01 2.793967723846D-09 0.000000000000D+00
    1.262929345703D+04 2.697401046753D+00 4.656612873077D-09-1.000000000000D+00
    1.974841113281D+04-1.802066802979D+00-0.000000000000D+00 0.000000000000D+00
 3 21 11  4 20 15  0.0 4.588905721903D-05 9.094947017729D-13 7.200000000000D+04
   -1.842010546875D+04-3.859195709229D-01 2.793967723846D-09 0.000000000000D+00
    1.710532421875D+04 5.087671279907D-01-1.862645149231D-09 5.000000000000D+00
   -4.478709960938D+03 3.497516632080D+00 0.000000000000D+00 0.000000000000D+00
15 21 11  4 20 15  0.0 1.004105433822D-04-0.000000000000D+00 7.200000000000D+04
    2.750352539062D+03 1.150493621826D-01 4.656612873077D-09 0.000000000000D+00
    2.529033105469D+04-2.780256271362D-01 2.793967723846D-09 0.000000000000D+00
   -1.866465332031D+03-3.554131507874D+00 1.862645149231D-09 0.000000000000D+00
 2 21 11  4 20 15  0.0 4.989691078663D-04 1.818989403546D-12 7.200000000000D+04
   -2.058737109375D+04 1.454340934753D+00 1.862645149231D-09 0.000000000000D+00
    8.347625488281D+03-9.324789047241D-01-1.862645149231D-09-4.000000000000D+00
    1.262947607422D+04 2.988634109497D+00-1.862645149231D-09 0.000000000000D+00
 4 21 11  4 20 15  0.0 1.126658171415D-04 1.818989403546D-12 7.200000000000D+04
   -6.103714355469D+03-1.985558509827D+00 1.862645149231D-09 0.000000000000D+00
    1.597054785156D+04 1.673935890198D+00-9.313225746155D-10 6.000000000000D+00
   -1.891665771484D+04 2.050468444824D+00 2.793967723846D-09 0.000000000000D+00
14 21 11  4 20 15  0.0 7.066410034895D-05 0.000000000000D+00 7.200000000000D+04
   -5.844393066406D+03-2.610120773315D-01 1.862645149231D-09 0.000000000000D+00
    1.771971679688D+04-2.369013786316D+00-0.000000000000D+00-7.000000000000D+00
   -1.737198388672D+04-2.327674865723D+00 2.793967723846D-09 0.000000000000D+00
16 21 11  4 20 15  0.0-2.444535493851D-05-0.000000000000D+00 7.200000000000D+04
    1.072128564453D+04 4.666414260864D-01 3.725290298462D-09 0.000000000000D+00
    1.698917529297D+04 2.110089302063D+00 4.656612873077D-09-1.000000000000D+00
    1.578561425781D+04-2.572290420532D+00 0.000000000000D+00 0.000000000000D+00
18 21 11  4 20 15  0.0 9.607616811991D-05 9.094947017729D-13 7.206000000000D+04
    5.159774902344D+03-2.691260337830D+00 3.725290298462D-09 0.000000000000D+00
    1.262612451172D+04-1.220181465149D+00 3.725290298462D-09-3.000000000000D+00
    2.156261181641D+04 1.363356590271D+00-9.313225746155D-10 0.000000000000D+00
 3 21 11  4 20 45  0.0 4.589091986418D-05 9.094947017729D-13 7.380000000000D+04
   -1.847663232422D+04 2.980489730835D-01 2.793967723846D-09 0.000000000000D+00
    1.753265185547D+04-6.623649597168D-02-1.862645149231D-09 5.000000000000D+00
    1.908352050781D+03 3.553280830383D+00-0.000000000000D+00 0.000000000000D+00
15 21 11  4 20 45  0.0 1.004096120596D-04-0.000000000000D+00 7.380000000000D+04
    2.739478027344D+03-1.636447906494D-01 3.725290298462D-09 0.000000000000D+00
    2.402287597656D+04-1.111007690430D+00 9.313225746155D-10 0.000000000000D+00
   -8.109013671875D+03-3.336946487427D+00 2.793967723846D-09 0.000000000000D+00
 4 21 11  4 20 45  0.0 1.126686111093D-04 1.818989403546D-12 7.380000000000D+04
   -9.070777832031D+03-1.301321983337D+00 1.862645149231D-09 0.000000000000D+00
    1.888566943359D+04 1.518710136414D+00-9.313225746155D-10 6.000000000000D+00
   -1.454155761719D+04 2.779104232788D+00 1.862645149231D-09 0.000000000000D+00
14 21 11  4 20 45  0.0 7.066410034895D-05 0.000000000000D+00 7.380000000000D+04
   -6.726163574219D+03-7.309923171997D-01 0.000000000000D+00 0.000000000000D+00
    1.306013281250D+04-2.761423110962D+00-1.862645149231D-09-7.000000000000D+00
   -2.083489404297D+04-1.494982719421D+00 2.793967723846D-09 0.000000000000D+00
16 21 11  4 20 45  0.0-2.444628626108D-05 0.000000000000D+00 7.380000000000D+04
    1.167073535156D+04 5.496940612793D-01 4.656612873077D-09 0.000000000000D+00
    2.012022460938D+04 1.347969055176D+00 3.725290298462D-09-1.000000000000D+00
    1.060801123047D+04-3.143295288086D+00 9.313225746155D-10 0.000000000000D+00
18 21 11  4 20 45  0.0 9.607896208763D-05 9.094947017729D-13 7.380000000000D+04
   -5.207617187500D+01-3.054203987122D+00 3.725290298462D-09 0.000000000000D+00
    1.073843164062D+04-8.506593704224D-01 1.862645149231D-09-3.000000000000D+00
    2.315242187500D+04 3.917884826660D-01-1.862645149231D-09 0.000000000000D+00
 5 21 11  4 20 45  0.0 8.188933134079D-05 9.094947017729D-13 7.524000000000D+04
    5.328169433594D+03-2.193715095520D+00 9.313225746155D-10 0.000000000000D+00
    9.870471191406D+03 2.244183540344D+00 0.000000000000D+00 1.000000000000D+00
   -2.290877050781D+04 4.540195465088D-01 3.725290298462D-09 0.000000000000D+00
 3 21 11  4 21 15  0.0 4.589371383190D-05 9.094947017729D-13 7.560000000000D+04
   -1.746210205078D+04 7.915773391724D-01 1.862645149231D-09 0.000000000000D+00
    1.677584716797D+04-7.919874191284D-01-1.862645149231D-09 5.000000000000D+00
    8.148503417969D+03 3.335420608521D+00-9.313225746155D-10 0.000000000000D+00
15 21 11  4 21 15  0.0 1.004086807370D-04-0.000000000000D+00 7.560000000000D+04
    2.047542480469D+03-6.305942535400D-01 2.793967723846D-09 0.000000000000D+00
    2.139041259766D+04-1.778724670410D+00-0.000000000000D+00 0.000000000000D+00
   -1.372401904297D+04-2.861350059509D+00 2.793967723846D-09 0.000000000000D+00
 4 21 11  4 21 15  0.0 1.126714050770D-04 1.818989403546D-12 7.560000000000D+04
   -1.078749609375D+04-6.153059005737D-01 1.862645149231D-09 0.000000000000D+00
    2.127338818359D+04 1.090847969055D+00-1.862645149231D-09 6.000000000000D+00
   -9.041405273438D+03 3.292432785034D+00 9.313225746155D-10 0.000000000000D+00
